MAKERSAT 0              
1 43016U 17073D   26127.20614480  .00018604  00000+0  52233-3 0  9991
2 43016  97.4680   9.4493 0112608  59.3865 301.8423 15.30367567460197
SIRION PATHFINDER-2     
1 43759U 18099B   26127.08191910  .00004736  00000+0  26280-3 0  9992
2 43759  97.4282 177.1213 0010467  85.0218 275.2208 15.14176820406401
CORVUS BC4              
1 43767U 18099K   26127.09941147  .00003276  00000+0  19342-3 0  9996
2 43767  97.4098 171.2858 0009639 135.6886 224.5118 15.12163793406193
M2 PATHFINDER           
1 45727U 20037E   26127.07957134  .00002824  00000+0  20612-3 0  9990
2 45727  97.8161 317.8510 0010556 294.3548  65.6575 15.04495379319314
NETSAT-4                
1 46504U 20068U   26126.94842047  .00014346  00000+0  33246-3 0  9998
2 46504  97.8625 131.9221 0007663 105.8127 254.3965 15.42518655309416
NETSAT-3                
1 46505U 20068V   26126.98718282  .00014632  00000+0  35323-3 0  9992
2 46505  97.8674 130.2346 0007358 118.3392 241.8596 15.41284731309331
NETSAT-1                
1 46506U 20068W   26126.97782206  .00010002  00000+0  30981-3 0  9991
2 46506  97.8758 125.0290 0006380 137.5754 222.5981 15.33654398308989
NETSAT-2                
1 46507U 20068X   26126.97523741  .00018977  00000+0  41379-3 0  9991
2 46507  97.8640 131.7083 0005906 125.5079 234.6719 15.44283135309370
GREENCUBE (IO-117)      
1 53109U 22080E   26125.85119694 -.00000003  00000+0  00000+0 0  9991
2 53109  70.1444 312.9759 0008857 299.6529  60.3249  6.42583318 89344
SITRO-AIS 5 (KATYS)     
1 57176U 23091L   26127.16596941  .00009733  00000+0  35269-3 0  9999
2 57176  97.5078 190.7011 0010283 242.2242 117.7955 15.28535436158073
SITRO-AIS 6 (CHIRKIN)   
1 57192U 23091AC  26127.18389002  .00004976  00000+0  20089-3 0  9995
2 57192  97.5086 190.0498 0010470 246.2578 113.7562 15.25203777158039
SITRO-AIS 8 (ANOKHIN)   
1 57193U 23091AD  26127.18701633  .00009996  00000+0  33528-3 0  9993
2 57193  97.5074 192.1502 0009568 237.3398 122.6921 15.31055637158173
SITRO-AIS 7 (FARTUSHNIY)
1 57194U 23091AE  26127.17892201  .00004659  00000+0  18995-3 0  9997
2 57194  97.5085 189.8902 0010295 247.5445 112.4702 15.24909574158026
SITRO-AIS 10 (BURDAEV)  
1 57199U 23091AK  26127.18974939  .00014718  00000+0  40708-3 0  9996
2 57199  97.5094 196.7998 0006501 206.6069 153.4843 15.37100115158463
SITRO-AIS 9 (SHCHUKIN)  
1 57201U 23091AM  26127.13863102  .00015867  00000+0  44499-3 0  9991
2 57201  97.5093 196.5080 0006683 207.3587 152.7306 15.36648575158440
SITRO-AIS 12 (SMIRENNIY)
1 57204U 23091AQ  26127.13690233  .00015780  00000+0  43862-3 0  9994
2 57204  97.5105 196.9483 0006491 200.7076 159.3906 15.36929883158460
SITRO-AIS 11 (SHEFFER)  
1 57208U 23091AU  26127.16114610  .00015837  00000+0  43470-3 0  9999
2 57208  97.5104 197.1951 0006440 200.5550 159.5436 15.37320898158489
SITRO-AIS 25            
1 59066U 24039R   26127.23482604  .00005209  00000+0  40468-3 0  9991
2 59066  95.3915 206.9562 0147635 111.0520 250.6566 14.93220012118617
SITRO-AIS 26            
1 59067U 24039S   26127.16368230  .00004834  00000+0  37747-3 0  9991
2 59067  95.3915 206.8132 0147915 111.8378 249.8655 14.93022734118597
SITRO-AIS 27            
1 59068U 24039T   26127.21230837  .00004515  00000+0  34985-3 0  9996
2 59068  95.3916 207.0997 0146848 110.4097 251.2969 14.93433055118629
SITRO-AIS 28            
1 59071U 24039U   26127.19069868  .00004327  00000+0  33509-3 0  9993
2 59071  95.3922 207.1298 0146830 110.2954 251.4121 14.93470821118620
GRBBETA                 
1 60237U 24128C   26127.00057721  .00003551  00000+0  24943-3 0  9993
2 60237  61.9913   0.7320 0045958 126.0845 234.4518 15.06307702100063
OOV-CUBE (TUBSAT-30)    
1 60240U 24128F   26127.06446955  .00002141  00000+0  17186-3 0  9999
2 60240  61.9965   8.9436 0049499 124.7229 235.8539 15.02568416 99935
ROBUSTA-3A (MEDITERRAN*)
1 60243U 24128J   26127.18086821  .00005960  00000+0  35866-3 0  9994
2 60243  61.9877 353.1855 0046746 119.9821 240.5927 15.11044063100222
LASARSAT                
1 62391U 24247Q   26127.04963575  .00023274  00000+0  50743-3 0  9996
2 62391  44.9730 132.9116 0004601  70.7425 289.3961 15.43886662 76953
CROCUBE                 
1 62394U 24247T   26127.02828427  .00027351  00000+0  56411-3 0  9991
2 62394  44.9713 130.9708 0004255  71.0687 289.0663 15.45440990 76971
FORESAIL-1 PRIME        
1 66778U 25276DS  26127.20661525  .00004098  00000+0  20291-3 0  9998
2 66778  97.4204 201.2369 0001246 211.1759 148.9401 15.18330762 24182
KNACKSAT-2              
1 67683U 98067XZ  26126.33918814  .00035738  00000+0  49824-3 0  9999
2 67683  51.6273 144.3710 0012719  43.0910 317.1075 15.56471135 13751
